[{"OBJECT_NAME":"CHECKMATE 3","OBJECT_ID":"2023-050H","EPOCH":"2026-03-09T16:47:21.387840","MEAN_MOTION":13.85138647,"ECCENTRICITY":0.0006819,"INCLINATION":81.0056,"RA_OF_ASC_NODE":166.8458,"ARG_OF_PERICENTER":211.4814,"MEAN_ANOMALY":148.5935,"EPHEMERIS_TYPE":0,"CLASSIFICATION_TYPE":"U","NORAD_CAT_ID":56169,"ELEMENT_SET_NO":999,"REV_AT_EPOCH":14834,"BSTAR":9.3224216e-5,"MEAN_MOTION_DOT":1.17e-6,"MEAN_MOTION_DDOT":0},{"OBJECT_NAME":"SL-8 R\/B","OBJECT_ID":"1982-012B","EPOCH":"2026-03-09T21:25:31.903104","MEAN_MOTION":13.77379293,"ECCENTRICITY":0.00427751,"INCLINATION":82.9018,"RA_OF_ASC_NODE":354.7199,"ARG_OF_PERICENTER":319.8163,"MEAN_ANOMALY":107.7684,"EPHEMERIS_TYPE":0,"CLASSIFICATION_TYPE":"U","NORAD_CAT_ID":13066,"ELEMENT_SET_NO":999,"REV_AT_EPOCH":21373,"BSTAR":7.5542491e-5,"MEAN_MOTION_DOT":9.0e-7,"MEAN_MOTION_DDOT":0}]
